CCSDS_OMM_VERS = 2.0
CREATION_DATE  = 
ORIGINATOR     = 

OBJECT_NAME    = SL-16 R/B
OBJECT_ID      = 1994-074B
CENTER_NAME    = EARTH
REF_FRAME      = TEME
TIME_SYSTEM    = UTC
MEAN_ELEMENT_THEORY = SGP/SGP4

EPOCH          = 2025-12-22T20:12:28.304064
MEAN_MOTION    = 14.79300476
ECCENTRICITY   = .0008011
INCLINATION    = 97.7190
RA_OF_ASC_NODE = 25.7446
ARG_OF_PERICENTER = 108.1375
MEAN_ANOMALY   = 64.6407

EPHEMERIS_TYPE = 0
CLASSIFICATION_TYPE = U
NORAD_CAT_ID   = 23343
ELEMENT_SET_NO = 999
REV_AT_EPOCH   = 67588
BSTAR          = .63510509E-4
MEAN_MOTION_DOT = .423E-5
MEAN_MOTION_DDOT = 0

CCSDS_OMM_VERS = 2.0
CREATION_DATE  = 
ORIGINATOR     = 

OBJECT_NAME    = SL-16 R/B
OBJECT_ID      = 1994-077B
CENTER_NAME    = EARTH
REF_FRAME      = TEME
TIME_SYSTEM    = UTC
MEAN_ELEMENT_THEORY = SGP/SGP4

EPOCH          = 2025-12-22T21:13:05.985120
MEAN_MOTION    = 14.15552772
ECCENTRICITY   = .00050181
INCLINATION    = 70.9820
RA_OF_ASC_NODE = 154.0726
ARG_OF_PERICENTER = 277.2773
MEAN_ANOMALY   = 82.7780

EPHEMERIS_TYPE = 0
CLASSIFICATION_TYPE = U
NORAD_CAT_ID   = 23405
ELEMENT_SET_NO = 999
REV_AT_EPOCH   = 60536
BSTAR          = -.41178976E-4
MEAN_MOTION_DOT = -.129E-5
MEAN_MOTION_DDOT = 0

CCSDS_OMM_VERS = 2.0
CREATION_DATE  = 
ORIGINATOR     = 

OBJECT_NAME    = ARIANE 40+ R/B
OBJECT_ID      = 1995-021B
CENTER_NAME    = EARTH
REF_FRAME      = TEME
TIME_SYSTEM    = UTC
MEAN_ELEMENT_THEORY = SGP/SGP4

EPOCH          = 2025-12-22T19:46:33.734784
MEAN_MOTION    = 14.39702757
ECCENTRICITY   = .00069676
INCLINATION    = 98.4638
RA_OF_ASC_NODE = 64.2908
ARG_OF_PERICENTER = 22.0140
MEAN_ANOMALY   = 91.1661

EPHEMERIS_TYPE = 0
CLASSIFICATION_TYPE = U
NORAD_CAT_ID   = 23561
ELEMENT_SET_NO = 999
REV_AT_EPOCH   = 60818
BSTAR          = .10506212E-3
MEAN_MOTION_DOT = .285E-5
MEAN_MOTION_DDOT = 0

CCSDS_OMM_VERS = 2.0
CREATION_DATE  = 
ORIGINATOR     = 

OBJECT_NAME    = SL-16 R/B
OBJECT_ID      = 1995-058B
CENTER_NAME    = EARTH
REF_FRAME      = TEME
TIME_SYSTEM    = UTC
MEAN_ELEMENT_THEORY = SGP/SGP4

EPOCH          = 2025-12-22T22:59:27.593664
MEAN_MOTION    = 14.15482079
ECCENTRICITY   = .00147707
INCLINATION    = 71.0218
RA_OF_ASC_NODE = 341.3512
ARG_OF_PERICENTER = 241.8685
MEAN_ANOMALY   = 118.0945

EPHEMERIS_TYPE = 0
CLASSIFICATION_TYPE = U
NORAD_CAT_ID   = 23705
ELEMENT_SET_NO = 999
REV_AT_EPOCH   = 55699
BSTAR          = -.94703317E-4
MEAN_MOTION_DOT = -.233E-5
MEAN_MOTION_DDOT = 0

CCSDS_OMM_VERS = 2.0
CREATION_DATE  = 
ORIGINATOR     = 

OBJECT_NAME    = SL-16 R/B
OBJECT_ID      = 1996-051B
CENTER_NAME    = EARTH
REF_FRAME      = TEME
TIME_SYSTEM    = UTC
MEAN_ELEMENT_THEORY = SGP/SGP4

EPOCH          = 2025-12-22T16:29:17.270880
MEAN_MOTION    = 14.12397351
ECCENTRICITY   = .00194887
INCLINATION    = 70.7595
RA_OF_ASC_NODE = 338.2281
ARG_OF_PERICENTER = 249.1745
MEAN_ANOMALY   = 110.7287

EPHEMERIS_TYPE = 0
CLASSIFICATION_TYPE = U
NORAD_CAT_ID   = 24298
ELEMENT_SET_NO = 999
REV_AT_EPOCH   = 51077
BSTAR          = .3586123E-5
MEAN_MOTION_DOT = -.43E-6
MEAN_MOTION_DDOT = 0

CCSDS_OMM_VERS = 2.0
CREATION_DATE  = 
ORIGINATOR     = 

OBJECT_NAME    = ORBVIEW 2 (SEASTAR)
OBJECT_ID      = 1997-037A
CENTER_NAME    = EARTH
REF_FRAME      = TEME
TIME_SYSTEM    = UTC
MEAN_ELEMENT_THEORY = SGP/SGP4

EPOCH          = 2025-12-22T21:11:49.544448
MEAN_MOTION    = 14.35424040
ECCENTRICITY   = .00012961
INCLINATION    = 98.8462
RA_OF_ASC_NODE = 154.2133
ARG_OF_PERICENTER = 298.6948
MEAN_ANOMALY   = 61.4106

EPHEMERIS_TYPE = 0
CLASSIFICATION_TYPE = U
NORAD_CAT_ID   = 24883
ELEMENT_SET_NO = 999
REV_AT_EPOCH   = 49745
BSTAR          = .11160256E-3
MEAN_MOTION_DOT = .274E-5
MEAN_MOTION_DDOT = 0

CCSDS_OMM_VERS = 2.0
CREATION_DATE  = 
ORIGINATOR     = 

OBJECT_NAME    = SL-16 R/B
OBJECT_ID      = 1998-043G
CENTER_NAME    = EARTH
REF_FRAME      = TEME
TIME_SYSTEM    = UTC
MEAN_ELEMENT_THEORY = SGP/SGP4

EPOCH          = 2025-12-22T19:57:57.646080
MEAN_MOTION    = 14.26027684
ECCENTRICITY   = .00089196
INCLINATION    = 98.8141
RA_OF_ASC_NODE = 304.7071
ARG_OF_PERICENTER = 234.0317
MEAN_ANOMALY   = 126.0036

EPHEMERIS_TYPE = 0
CLASSIFICATION_TYPE = U
NORAD_CAT_ID   = 25400
ELEMENT_SET_NO = 999
REV_AT_EPOCH   = 42803
BSTAR          = .37289851E-4
MEAN_MOTION_DOT = .44E-6
MEAN_MOTION_DDOT = 0

CCSDS_OMM_VERS = 2.0
CREATION_DATE  = 
ORIGINATOR     = 

OBJECT_NAME    = SL-16 R/B
OBJECT_ID      = 1998-045B
CENTER_NAME    = EARTH
REF_FRAME      = TEME
TIME_SYSTEM    = UTC
MEAN_ELEMENT_THEORY = SGP/SGP4

EPOCH          = 2025-12-22T08:54:07.592544
MEAN_MOTION    = 14.16176251
ECCENTRICITY   = .00064
INCLINATION    = 71.0117
RA_OF_ASC_NODE = 344.1720
ARG_OF_PERICENTER = 160.7172
MEAN_ANOMALY   = 199.4194

EPHEMERIS_TYPE = 0
CLASSIFICATION_TYPE = U
NORAD_CAT_ID   = 25407
ELEMENT_SET_NO = 999
REV_AT_EPOCH   = 41615
BSTAR          = .15341171E-3
MEAN_MOTION_DOT = .256E-5
MEAN_MOTION_DDOT = 0

CCSDS_OMM_VERS = 2.0
CREATION_DATE  = 
ORIGINATOR     = 

OBJECT_NAME    = ISS (ZARYA)
OBJECT_ID      = 1998-067A
CENTER_NAME    = EARTH
REF_FRAME      = TEME
TIME_SYSTEM    = UTC
MEAN_ELEMENT_THEORY = SGP/SGP4

EPOCH          = 2025-12-22T15:58:44.561856
MEAN_MOTION    = 15.49732869
ECCENTRICITY   = .00031542
INCLINATION    = 51.6326
RA_OF_ASC_NODE = 93.3232
ARG_OF_PERICENTER = 286.8846
MEAN_ANOMALY   = 73.1797

EPHEMERIS_TYPE = 0
CLASSIFICATION_TYPE = U
NORAD_CAT_ID   = 25544
ELEMENT_SET_NO = 999
REV_AT_EPOCH   = 54439
BSTAR          = .22188304E-3
MEAN_MOTION_DOT = .1211E-3
MEAN_MOTION_DDOT = 0

CCSDS_OMM_VERS = 2.0
CREATION_DATE  = 
ORIGINATOR     = 

OBJECT_NAME    = CZ-4B R/B
OBJECT_ID      = 1999-025C
CENTER_NAME    = EARTH
REF_FRAME      = TEME
TIME_SYSTEM    = UTC
MEAN_ELEMENT_THEORY = SGP/SGP4

EPOCH          = 2025-12-22T20:38:08.989728
MEAN_MOTION    = 14.18246052
ECCENTRICITY   = .00367282
INCLINATION    = 98.6754
RA_OF_ASC_NODE = 37.9129
ARG_OF_PERICENTER = 204.3999
MEAN_ANOMALY   = 329.3607

EPHEMERIS_TYPE = 0
CLASSIFICATION_TYPE = U
NORAD_CAT_ID   = 25732
ELEMENT_SET_NO = 999
REV_AT_EPOCH   = 37727
BSTAR          = .47486228E-4
MEAN_MOTION_DOT = .55E-6
MEAN_MOTION_DDOT = 0

CCSDS_OMM_VERS = 2.0
CREATION_DATE  = 
ORIGINATOR     = 

OBJECT_NAME    = OKEAN-O
OBJECT_ID      = 1999-039A
CENTER_NAME    = EARTH
REF_FRAME      = TEME
TIME_SYSTEM    = UTC
MEAN_ELEMENT_THEORY = SGP/SGP4

EPOCH          = 2025-12-22T15:49:23.875968
MEAN_MOTION    = 14.80178014
ECCENTRICITY   = .00010431
INCLINATION    = 97.9588
RA_OF_ASC_NODE = 52.2747
ARG_OF_PERICENTER = 112.7563
MEAN_ANOMALY   = 247.3759

EPHEMERIS_TYPE = 0
CLASSIFICATION_TYPE = U
NORAD_CAT_ID   = 25860
ELEMENT_SET_NO = 999
REV_AT_EPOCH   = 42299
BSTAR          = .99364089E-4
MEAN_MOTION_DOT = .703E-5
MEAN_MOTION_DDOT = 0

CCSDS_OMM_VERS = 2.0
CREATION_DATE  = 
ORIGINATOR     = 

OBJECT_NAME    = SL-16 R/B
OBJECT_ID      = 1999-039B
CENTER_NAME    = EARTH
REF_FRAME      = TEME
TIME_SYSTEM    = UTC
MEAN_ELEMENT_THEORY = SGP/SGP4

EPOCH          = 2025-12-22T21:57:37.303776
MEAN_MOTION    = 14.81600482
ECCENTRICITY   = .00156792
INCLINATION    = 98.0111
RA_OF_ASC_NODE = 51.0663
ARG_OF_PERICENTER = 142.6108
MEAN_ANOMALY   = 217.6199

EPHEMERIS_TYPE = 0
CLASSIFICATION_TYPE = U
NORAD_CAT_ID   = 25861
ELEMENT_SET_NO = 999
REV_AT_EPOCH   = 42549
BSTAR          = .81276736E-4
MEAN_MOTION_DOT = .586E-5
MEAN_MOTION_DDOT = 0

CCSDS_OMM_VERS = 2.0
CREATION_DATE  = 
ORIGINATOR     = 

OBJECT_NAME    = DELTA 2 R/B
OBJECT_ID      = 1999-041E
CENTER_NAME    = EARTH
REF_FRAME      = TEME
TIME_SYSTEM    = UTC
MEAN_ELEMENT_THEORY = SGP/SGP4

EPOCH          = 2025-12-22T16:44:41.090784
MEAN_MOTION    = 14.11425937
ECCENTRICITY   = .05044879
INCLINATION    = 51.7606
RA_OF_ASC_NODE = 248.6942
ARG_OF_PERICENTER = 121.1143
MEAN_ANOMALY   = 244.0293

EPHEMERIS_TYPE = 0
CLASSIFICATION_TYPE = U
NORAD_CAT_ID   = 25876
ELEMENT_SET_NO = 999
REV_AT_EPOCH   = 35215
BSTAR          = .16857966E-3
MEAN_MOTION_DOT = .799E-5
MEAN_MOTION_DDOT = 0

CCSDS_OMM_VERS = 2.0
CREATION_DATE  = 
ORIGINATOR     = 

OBJECT_NAME    = HELIOS 1B
OBJECT_ID      = 1999-064A
CENTER_NAME    = EARTH
REF_FRAME      = TEME
TIME_SYSTEM    = UTC
MEAN_ELEMENT_THEORY = SGP/SGP4

EPOCH          = 2025-12-22T23:05:40.000992
MEAN_MOTION    = 14.87320204
ECCENTRICITY   = .00010977
INCLINATION    = 98.1756
RA_OF_ASC_NODE = 251.9311
ARG_OF_PERICENTER = 31.4350
MEAN_ANOMALY   = 328.6931

EPHEMERIS_TYPE = 0
CLASSIFICATION_TYPE = U
NORAD_CAT_ID   = 25977
ELEMENT_SET_NO = 999
REV_AT_EPOCH   = 67385
BSTAR          = .1973469E-3
MEAN_MOTION_DOT = .1723E-4
MEAN_MOTION_DDOT = 0

CCSDS_OMM_VERS = 2.0
CREATION_DATE  = 
ORIGINATOR     = 

OBJECT_NAME    = TERRA
OBJECT_ID      = 1999-068A
CENTER_NAME    = EARTH
REF_FRAME      = TEME
TIME_SYSTEM    = UTC
MEAN_ELEMENT_THEORY = SGP/SGP4

EPOCH          = 2025-12-22T21:24:42.359616
MEAN_MOTION    = 14.60912896
ECCENTRICITY   = .00034769
INCLINATION    = 97.9733
RA_OF_ASC_NODE = 48.2034
ARG_OF_PERICENTER = 74.1925
MEAN_ANOMALY   = 98.7996

EPHEMERIS_TYPE = 0
CLASSIFICATION_TYPE = U
NORAD_CAT_ID   = 25994
ELEMENT_SET_NO = 999
REV_AT_EPOCH   = 38386
BSTAR          = .10694948E-3
MEAN_MOTION_DOT = .479E-5
MEAN_MOTION_DDOT = 0

